
CARTOSAT-2D
1 41948U 17008A   26170.33198979  .00000122  00000+0  89731-5 0  9994
2 41948  97.4100 229.5986 0003954 224.5854 135.5063 15.19215066517902

CARTOSAT-2E
1 42767U 17036C   26170.28391112  .00002585  00000+0  12580-3 0  9994
2 42767  97.4269 230.0519 0002252 309.7065  50.3971 15.19267590498467

CARTOSAT-2F
1 43111U 18004A   26170.31614347  .00002137  00000+0  10472-3 0  9997
2 43111  97.4778 229.9304 0000949 198.4033 161.7167 15.19225599467658

CORVUS BC1
1 42847U 17042Y   26170.18213218  .00002671  00000+0  18461-3 0  9999
2 42847  97.4108 332.2694 0013481  83.2395 277.0366 15.06477848487394

CORVUS BC2
1 42846U 17042X   26169.92203156  .00003039  00000+0  21041-3 0  9995
2 42846  97.4074 331.2038 0014481 105.0492 255.2340 15.06307766487322

FENGYUN 3D
1 43010U 17072A   26170.26160236  .00000538  00000+0  27605-3 0  9995
2 43010  99.0130 144.7220 0002509  59.3043 300.8380 14.19741501445280

FLYING LAPTOP
1 42831U 17042G   26170.31856334  .00002429  00000+0  19330-3 0  9996
2 42831  97.4699 325.7687 0019650 114.7791 245.5481 15.01156173486774

IRIDIUM 113
1 42803U 17039A   26170.12411101  .00000017  00000+0 -81502-6 0  9994
2 42803  86.3967 321.3690 0002155  89.1530 270.9912 14.34217645471460

IRIDIUM 116
1 43072U 17083C   26170.16850868 -.00000010  00000+0 -10720-4 0  9999
2 43072  86.3960 321.1729 0001907 100.1079 260.0332 14.34217427444452

IRIDIUM 130
1 43073U 17083D   26170.13679109  .00000166  00000+0  52353-4 0  9992
2 43073  86.3974 321.4614 0001950  93.5048 266.6371 14.34219527444394

JILIN-1 03
1 41914U 17002B   26170.29771206  .00011145  00000+0  26648-3 0  9999
2 41914  97.1947 177.3524 0007043 148.2350 211.9324 15.41619595522180

JILIN-1 04
1 43022U 17074A   26170.29192468  .00011622  00000+0  27016-3 0  9997
2 43022  97.4862 279.9605 0004323 171.6217 188.5103 15.42486975474590

JILIN-1 05
1 43023U 17074B   26170.27397046  .00007051  00000+0  21742-3 0  9996
2 43023  97.4867 276.4563 0004544 206.0076 154.0939 15.33904190474322

JILIN-1 06
1 43024U 17074C   26170.24580791  .00005055  00000+0  15751-3 0  9990
2 43024  97.4793 273.4349 0005848 222.2198 137.8594 15.33712905474151

LEMUR-2-FURIAUS
1 42840U 17042R   26170.23860679  .00015285  00000+0  52300-3 0  9992
2 42840  97.3776 348.8037 0008057  62.8731 297.3331 15.30308008488522

LEMUR-2-GREENBERG
1 42837U 17042N   26170.24336858  .00014345  00000+0  47503-3 0  9991
2 42837  97.3823 350.8580 0008287   6.3908 353.7437 15.31380921488700

LKW-2
1 43080U 17084A   26170.32303829  .00004002  00000+0  15663-3 0  9990
2 43080  97.1184 210.0195 0001383 172.1643 187.9618 15.26360274472014

LKW-3
1 43146U 18006A   26170.26988030  .00006004  00000+0  17778-3 0  9997
2 43146  97.6618 330.9239 0001911 312.6928  47.4153 15.35278940469039

MAKERSAT 0
1 43016U 17073D   26170.20457006  .00014640  00000+0  39819-3 0  9999
2 43016  97.4615  52.7389 0104988 265.6718  93.2521 15.32154743466774

MOHAMMED VI-A
1 43005U 17070A   26170.31093399  .00000748  00000+0  11313-3 0  9990
2 43005  97.9557 242.6132 0001326  74.5630 285.5727 14.77072710464290

NOAA 20 (JPSS-1)
1 43013U 17073A   26170.25689817  .00000033  00000+0  36434-4 0  9990
2 43013  98.7770 109.7012 0000338 113.0011 247.1200 14.19512061444763

NORSAT 2
1 42828U 17042D   26170.06584201  .00007982  00000+0  35248-3 0  9990
2 42828  97.4042 343.4760 0010350  51.4795 308.7368 15.21957442488026

RADFXSAT (FOX-1B)
1 43017U 17073E   26168.60486874  .00005679  00000+0  24962-3 0  9991
2 43017  97.4696  35.8108 0149538 327.7970  31.4193 15.12722439465459

SUPERVIEW-1 03
1 43099U 18002A   26170.31103659  .00014858  00000+0  36811-3 0  9997
2 43099  97.3131 255.1452 0047328 171.9538 188.2478 15.39317183468695

TANSAT
1 41898U 16081A   26170.30455709  .00000426  00000+0  99227-4 0  9999
2 41898  98.5361 170.6254 0019441 305.4573  54.4811 14.59953062504933

TECHNOSAT
1 42829U 17042E   26170.17743574  .00002913  00000+0  20885-3 0  9993
2 42829  97.4295 327.7591 0019096  87.9801 272.3613 15.04973153487006

VRSS-2
1 42954U 17060A   26170.34884913  .00001090  00000+0  14602-3 0  9999
2 42954  97.6505 207.9789 0018700  92.4147 267.9207 14.81199302468776

WNISAT 1R
1 42835U 17042L   26170.15745090  .00001744  00000+0  13819-3 0  9993
2 42835  97.4836 326.2092 0011329 141.1831 219.0210 15.01769530486808
