OBJECT_NAME,OBJECT_ID,EPOCH,MEAN_MOTION,ECCENTRICITY,INCLINATION,RA_OF_ASC_NODE,ARG_OF_PERICENTER,MEAN_ANOMALY,EPHEMERIS_TYPE,CLASSIFICATION_TYPE,NORAD_CAT_ID,ELEMENT_SET_NO,REV_AT_EPOCH,BSTAR,MEAN_MOTION_DOT,MEAN_MOTION_DDOT
TANSAT,2016-081A,2026-06-19T07:18:33.732576,14.59953062,.00194419,98.5361,170.6254,305.4573,54.4811,0,U,41898,999,50493,.99226766E-4,.426E-5,0
JILIN-1 03,2017-002B,2026-06-19T07:08:42.321984,15.41619595,.0007043,97.1947,177.3524,148.2350,211.9324,0,U,41914,999,52218,.26648141E-3,.11145E-3,0
CARTOSAT-2D,2017-008A,2026-06-19T07:58:03.917856,15.19215066,.00039548,97.4100,229.5986,224.5854,135.5063,0,U,41948,999,51790,.8973126E-5,.122E-5,0
CARTOSAT-2E,2017-036C,2026-06-19T06:48:49.920768,15.19267590,.00022529,97.4269,230.0519,309.7065,50.3971,0,U,42767,999,49846,.12579802E-3,.2585E-4,0
IRIDIUM 113,2017-039A,2026-06-19T02:58:43.191264,14.34217645,.00021559,86.3967,321.3690,89.1530,270.9912,0,U,42803,999,47146,-.815024E-6,.17E-6,0
NORSAT 2,2017-042D,2026-06-19T01:34:48.749664,15.21957442,.00103509,97.4042,343.4760,51.4795,308.7368,0,U,42828,999,48802,.35247933E-3,.7982E-4,0
TECHNOSAT,2017-042E,2026-06-19T04:15:30.447936,15.04973153,.00190966,97.4295,327.7591,87.9801,272.3613,0,U,42829,999,48700,.20884565E-3,.2913E-4,0
FLYING LAPTOP,2017-042G,2026-06-19T07:38:43.872576,15.01156173,.00196509,97.4699,325.7687,114.7791,245.5481,0,U,42831,999,48677,.19330262E-3,.2429E-4,0
WNISAT 1R,2017-042L,2026-06-19T03:46:43.757760,15.01769530,.00113291,97.4836,326.2092,141.1831,219.0210,0,U,42835,999,48680,.13819395E-3,.1744E-4,0
LEMUR-2-GREENBERG,2017-042N,2026-06-19T05:50:27.045312,15.31380921,.00082875,97.3823,350.8580,6.3908,353.7437,0,U,42837,999,48870,.47502669E-3,.14345E-3,0
LEMUR-2-FURIAUS,2017-042R,2026-06-19T05:43:35.626656,15.30308008,.00080577,97.3776,348.8037,62.8731,297.3331,0,U,42840,999,48852,.52299501E-3,.15285E-3,0
CORVUS BC2,2017-042X,2026-06-18T22:07:43.526784,15.06307766,.0014481,97.4074,331.2038,105.0492,255.2340,0,U,42846,999,48732,.21041E-3,.3039E-4,0
CORVUS BC1,2017-042Y,2026-06-19T04:22:16.220352,15.06477848,.00134812,97.4108,332.2694,83.2395,277.0366,0,U,42847,999,48739,.18460517E-3,.2671E-4,0
VRSS-2,2017-060A,2026-06-19T08:22:20.564832,14.81199302,.00187005,97.6505,207.9789,92.4147,267.9207,0,U,42954,999,46877,.14601837E-3,.109E-4,0
MOHAMMED VI-A,2017-070A,2026-06-19T07:27:44.696736,14.77072710,.00013269,97.9557,242.6132,74.5630,285.5727,0,U,43005,999,46429,.1131344E-3,.748E-5,0
FENGYUN 3D,2017-072A,2026-06-19T06:16:42.443904,14.19741501,.00025098,99.0130,144.7220,59.3043,300.8380,0,U,43010,999,44528,.27605428E-3,.538E-5,0
NOAA 20 (JPSS-1),2017-073A,2026-06-19T06:09:56.001888,14.19512061,.00003381,98.7770,109.7012,113.0011,247.1200,0,U,43013,999,44476,.36433603E-4,.33E-6,0
MAKERSAT 0,2017-073D,2026-06-19T04:54:34.853184,15.32154743,.0104988,97.4615,52.7389,265.6718,93.2521,0,U,43016,999,46677,.39819278E-3,.1464E-3,0
RADFXSAT (FOX-1B),2017-073E,2026-06-17T14:31:00.659136,15.12722439,.0149538,97.4696,35.8108,327.7970,31.4193,0,U,43017,999,46545,.24962E-3,.5679E-4,0
JILIN-1 04,2017-074A,2026-06-19T07:00:22.292352,15.42486975,.00043235,97.4862,279.9605,171.6217,188.5103,0,U,43022,999,47459,.27016485E-3,.11622E-3,0
JILIN-1 05,2017-074B,2026-06-19T06:34:31.047744,15.33904190,.00045443,97.4867,276.4563,206.0076,154.0939,0,U,43023,999,47432,.21742348E-3,.7051E-4,0
JILIN-1 06,2017-074C,2026-06-19T05:53:57.803424,15.33712905,.00058481,97.4793,273.4349,222.2198,137.8594,0,U,43024,999,47415,.15750561E-3,.5055E-4,0
IRIDIUM 116,2017-083C,2026-06-19T04:02:39.149952,14.34217427,.00019076,86.3960,321.1729,100.1079,260.0332,0,U,43072,999,44445,-.10720019E-4,-.1E-6,0
IRIDIUM 130,2017-083D,2026-06-19T03:16:58.750176,14.34219527,.000195,86.3974,321.4614,93.5048,266.6371,0,U,43073,999,44439,.52352808E-4,.166E-5,0
LKW-2,2017-084A,2026-06-19T07:45:10.508256,15.26360274,.00013833,97.1184,210.0195,172.1643,187.9618,0,U,43080,999,47201,.15663459E-3,.4002E-4,0
SUPERVIEW-1 03,2018-002A,2026-06-19T07:27:53.561376,15.39317183,.00473287,97.3131,255.1452,171.9538,188.2478,0,U,43099,999,46869,.36811115E-3,.14858E-3,0
CARTOSAT-2F,2018-004A,2026-06-19T07:35:14.795808,15.19225599,.00009492,97.4778,229.9304,198.4033,161.7167,0,U,43111,999,46765,.10471748E-3,.2137E-4,0
LKW-3,2018-006A,2026-06-19T06:28:37.657920,15.35278940,.00019118,97.6618,330.9239,312.6928,47.4153,0,U,43146,999,46903,.17778432E-3,.6004E-4,0
